start=new Date('2022-10-08T00:00:00.000Z').valueOf();
sats=[{"TLE_LINE1":"1 51714U 22016A   22280.85655146  .00002575  00000-0  17981-3 0  9991","MEAN_ANOMALY":"295.3408","OBJECT_TYPE":"PAYLOAD","TLE_LINE2":"2 51714  53.2161 175.3604 0001360  64.7725 295.3408 15.08839831 34896","TIME_SYSTEM":"UTC","ECCENTRICITY":"0.00013600","FILE":"3595773","RA_OF_ASC_NODE":"175.3604","REV_AT_EPOCH":"3489","COUNTRY_CODE":"US","ARG_OF_PERICENTER":"64.7725","MEAN_ELEMENT_THEORY":"SGP4","OBJECT_NAME":"STARLINK-3528","LAUNCH_DATE":"2022-02-21","MEAN_MOTION":"15.08839831","REF_FRAME":"TEME","RCS_SIZE":"LARGE","CENTER_NAME":"EARTH","SEMIMAJOR_AXIS":"6917.881","EPHEMERIS_TYPE":"0","OBJECT_ID":"2022-016A","PERIOD":"95.438","GP_ID":"214437677","EPOCH":"2022-10-07T20:33:26.046144","CLASSIFICATION_TYPE":"U","DECAY_DATE":null,"APOAPSIS":"540.687","MEAN_MOTION_DDOT":"0.0000000000000","ELEMENT_SET_NO":"999","BSTAR":"0.00017981000000","SITE":"AFETR","INCLINATION":"53.2161","PERIAPSIS":"538.805","NORAD_CAT_ID":"51714","MEAN_MOTION_DOT":"0.00002575"},{"OBJECT_TYPE":"PAYLOAD","TLE_LINE2":"2 51715  53.2175 178.9826 0001837  51.5867 308.5290 15.08830189 35903","TLE_LINE1":"1 51715U 22016B   22280.05065472  .00003785  00000-0  25587-3 0  9996","MEAN_ANOMALY":"308.5290","LAUNCH_DATE":"2022-02-21","RCS_SIZE":"LARGE","MEAN_MOTION":"15.08830189","REF_FRAME":"TEME","FILE":"3595509","RA_OF_ASC_NODE":"178.9826","REV_AT_EPOCH":"3590","TIME_SYSTEM":"UTC","ECCENTRICITY":"0.00018370","MEAN_ELEMENT_THEORY":"SGP4","OBJECT_NAME":"STARLINK-3533","ARG_OF_PERICENTER":"51.5867","COUNTRY_CODE":"US","EPHEMERIS_TYPE":"0","OBJECT_ID":"2022-016B","SEMIMAJOR_AXIS":"6917.910","PERIOD":"95.438","CENTER_NAME":"EARTH","ELEMENT_SET_NO":"999","BSTAR":"0.00025587000000","SITE":"AFETR","MEAN_MOTION_DOT":"0.00003785","INCLINATION":"53.2175","PERIAPSIS":"538.505","NORAD_CAT_ID":"51715","DECAY_DATE":null,"CLASSIFICATION_TYPE":"U","EPOCH":"2022-10-07T01:12:56.567808","GP_ID":"214405617","MEAN_MOTION_DDOT":"0.0000000000000","APOAPSIS":"541.046"},{"CENTER_NAME":"EARTH","EPHEMERIS_TYPE":"0","OBJECT_ID":"2022-016C","SEMIMAJOR_AXIS":"6917.829","PERIOD":"95.436","CLASSIFICATION_TYPE":"U","DECAY_DATE":null,"GP_ID":"214436675","EPOCH":"2022-10-07T20:28:08.322240","MEAN_MOTION_DDOT":"0.0000000000000","APOAPSIS":"540.889","ELEMENT_SET_NO":"999","BSTAR":"0.00059221000000","SITE":"AFETR","MEAN_MOTION_DOT":"0.00009154","INCLINATION":"53.2163","PERIAPSIS":"538.500","NORAD_CAT_ID":"51716","TLE_LINE1":"1 51716U 22016C   22280.85287410  .00009154  00000-0  59221-3 0  9991","MEAN_ANOMALY":"294.9546","OBJECT_TYPE":"PAYLOAD","TLE_LINE2":"2 51716  53.2163 175.3802 0001727  65.1626 294.9546 15.08856690 34892","FILE":"3595773","REV_AT_EPOCH":"3489","RA_OF_ASC_NODE":"175.3802","TIME_SYSTEM":"UTC","ECCENTRICITY":"0.00017270","MEAN_ELEMENT_THEORY":"SGP4","OBJECT_NAME":"STARLINK-3543","COUNTRY_CODE":"US","ARG_OF_PERICENTER":"65.1626","LAUNCH_DATE":"2022-02-21","RCS_SIZE":"LARGE","MEAN_MOTION":"15.08856690","REF_FRAME":"TEME"},{"CENTER_NAME":"EARTH","PERIOD":"95.437","SEMIMAJOR_AXIS":"6917.853","EPHEMERIS_TYPE":"0","OBJECT_ID":"2022-016D","APOAPSIS":"541.054","MEAN_MOTION_DDOT":"0.0000000000000","EPOCH":"2022-10-07T20:22:50.133504","GP_ID":"214437427","DECAY_DATE":null,"CLASSIFICATION_TYPE":"U","INCLINATION":"53.2163","PERIAPSIS":"538.382","NORAD_CAT_ID":"51717","MEAN_MOTION_DOT":"0.00004536","BSTAR":"0.00030282000000","ELEMENT_SET_NO":"999","SITE":"AFETR","TLE_LINE1":"1 51717U 22016D   22280.84919136  .00004536  00000-0  30282-3 0  9993","MEAN_ANOMALY":"309.7957","TLE_LINE2":"2 51717  53.2163 175.3950 0001931  50.3205 309.7957 15.08848927 34898","OBJECT_TYPE":"PAYLOAD","COUNTRY_CODE":"US","ARG_OF_PERICENTER":"50.3205","MEAN_ELEMENT_THEORY":"SGP4","OBJECT_NAME":"STARLINK-3445","TIME_SYSTEM":"UTC","ECCENTRICITY":"0.00019310","FILE":"3595773","RA_OF_ASC_NODE":"175.3950","REV_AT_EPOCH":"3489","MEAN_MOTION":"15.08848927","REF_FRAME":"TEME","RCS_SIZE":"LARGE","LAUNCH_DATE":"2022-02-21"},{"OBJECT_ID":"2022-016E","EPHEMERIS_TYPE":"0","SEMIMAJOR_AXIS":"6917.892","PERIOD":"95.438","CENTER_NAME":"EARTH","SITE":"AFETR","BSTAR":"-0.00002755100000","ELEMENT_SET_NO":"999","MEAN_MOTION_DOT":"-0.00000727","NORAD_CAT_ID":"51718","PERIAPSIS":"538.508","INCLINATION":"53.2159","CLASSIFICATION_TYPE":"U","DECAY_DATE":null,"EPOCH":"2022-10-07T21:37:01.388064","GP_ID":"214437177","MEAN_MOTION_DDOT":"0.0000000000000","APOAPSIS":"541.005","OBJECT_TYPE":"PAYLOAD","TLE_LINE2":"2 51718  53.2159 175.1416 0001805  51.0563 309.0590 15.08836282 36028","MEAN_ANOMALY":"309.0590","TLE_LINE1":"1 51718U 22016E   22280.90071051 -.00000727  00000-0 -27551-4 0  9992","LAUNCH_DATE":"2022-02-21","RCS_SIZE":"LARGE","REF_FRAME":"TEME","MEAN_MOTION":"15.08836282","REV_AT_EPOCH":"3602","RA_OF_ASC_NODE":"175.1416","FILE":"3595773","ECCENTRICITY":"0.00018050","TIME_SYSTEM":"UTC","OBJECT_NAME":"STARLINK-3546","MEAN_ELEMENT_THEORY":"SGP4","COUNTRY_CODE":"US","ARG_OF_PERICENTER":"51.0563"},{"CENTER_NAME":"EARTH","OBJECT_ID":"2022-016F","EPHEMERIS_TYPE":"0","SEMIMAJOR_AXIS":"6917.891","PERIOD":"95.438","DECAY_DATE":null,"CLASSIFICATION_TYPE":"U","GP_ID":"214435925","EPOCH":"2022-10-07T20:12:14.683104","APOAPSIS":"540.929","MEAN_MOTION_DDOT":"0.0000000000000","BSTAR":"0.00011652000000","ELEMENT_SET_NO":"999","SITE":"AFETR","MEAN_MOTION_DOT":"0.00001567","INCLINATION":"53.2171","NORAD_CAT_ID":"51719","PERIAPSIS":"538.583","TLE_LINE1":"1 51719U 22016F   22280.84183661  .00001567  00000-0  11652-3 0  9992","MEAN_ANOMALY":"303.7151","OBJECT_TYPE":"PAYLOAD","TLE_LINE2":"2 51719  53.2171 175.4274 0001696  56.4003 303.7151 15.08836525 34891","FILE":"3595773","RA_OF_ASC_NODE":"175.4274","REV_AT_EPOCH":"3489","TIME_SYSTEM":"UTC","ECCENTRICITY":"0.00016960","MEAN_ELEMENT_THEORY":"SGP4","OBJECT_NAME":"STARLINK-3540","COUNTRY_CODE":"US","ARG_OF_PERICENTER":"56.4003","LAUNCH_DATE":"2022-02-21","RCS_SIZE":"LARGE","MEAN_MOTION":"15.08836525","REF_FRAME":"TEME"},{"MEAN_MOTION_DOT":"0.00003004","NORAD_CAT_ID":"51720","PERIAPSIS":"538.426","INCLINATION":"53.2157","SITE":"AFETR","ELEMENT_SET_NO":"999","BSTAR":"0.00020675000000","APOAPSIS":"541.023","MEAN_MOTION_DDOT":"0.0000000000000","CLASSIFICATION_TYPE":"U","DECAY_DATE":null,"GP_ID":"214436175","EPOCH":"2022-10-07T21:31:43.795488","PERIOD":"95.437","EPHEMERIS_TYPE":"0","OBJECT_ID":"2022-016G","SEMIMAJOR_AXIS":"6917.859","CENTER_NAME":"EARTH","RCS_SIZE":"LARGE","REF_FRAME":"TEME","MEAN_MOTION":"15.08846852","LAUNCH_DATE":"2022-02-21","OBJECT_NAME":"STARLINK-3526","MEAN_ELEMENT_THEORY":"SGP4","COUNTRY_CODE":"US","ARG_OF_PERICENTER":"51.5835","REV_AT_EPOCH":"3489","RA_OF_ASC_NODE":"175.1570","FILE":"3595773","ECCENTRICITY":"0.00018770","TIME_SYSTEM":"UTC","TLE_LINE2":"2 51720  53.2157 175.1570 0001877  51.5835 308.5325 15.08846852 34893","OBJECT_TYPE":"PAYLOAD","MEAN_ANOMALY":"308.5325","TLE_LINE1":"1 51720U 22016G   22280.89703467  .00003004  00000-0  20675-3 0  9994"},{"MEAN_MOTION_DDOT":"0.0000000000000","APOAPSIS":"540.676","GP_ID":"214436927","EPOCH":"2022-10-07T21:42:19.805760","DECAY_DATE":null,"CLASSIFICATION_TYPE":"U","PERIAPSIS":"538.823","NORAD_CAT_ID":"51721","INCLINATION":"53.2153","MEAN_MOTION_DOT":"-0.00000093","SITE":"AFETR","ELEMENT_SET_NO":"999","BSTAR":"0.00001225600000","CENTER_NAME":"EARTH","PERIOD":"95.438","SEMIMAJOR_AXIS":"6917.885","OBJECT_ID":"2022-016H","EPHEMERIS_TYPE":"0","ARG_OF_PERICENTER":"76.0204","COUNTRY_CODE":"US","OBJECT_NAME":"STARLINK-3524","MEAN_ELEMENT_THEORY":"SGP4","ECCENTRICITY":"0.00013390","TIME_SYSTEM":"UTC","REV_AT_EPOCH":"3490","RA_OF_ASC_NODE":"175.1394","FILE":"3595773","REF_FRAME":"TEME","MEAN_MOTION":"15.08838588","RCS_SIZE":"LARGE","LAUNCH_DATE":"2022-02-21","MEAN_ANOMALY":"284.0937","TLE_LINE1":"1 51721U 22016H   22280.90439590 -.00000093  00000-0  12256-4 0  9993","TLE_LINE2":"2 51721  53.2153 175.1394 0001339  76.0204 284.0937 15.08838588 34905","OBJECT_TYPE":"PAYLOAD"},{"OBJECT_NAME":"STARLINK-3535","MEAN_ELEMENT_THEORY":"SGP4","COUNTRY_CODE":"US","ARG_OF_PERICENTER":"47.8913","REV_AT_EPOCH":"3489","RA_OF_ASC_NODE":"175.1987","FILE":"3595773","ECCENTRICITY":"0.00018790","TIME_SYSTEM":"UTC","RCS_SIZE":"LARGE","REF_FRAME":"TEME","MEAN_MOTION":"15.08835490","LAUNCH_DATE":"2022-02-21","MEAN_ANOMALY":"312.2238","TLE_LINE1":"1 51722U 22016J   22280.88967887  .00000699  00000-0  62030-4 0  9992","TLE_LINE2":"2 51722  53.2176 175.1987 0001879  47.8913 312.2238 15.08835490 34896","OBJECT_TYPE":"PAYLOAD","MEAN_MOTION_DDOT":"0.0000000000000","APOAPSIS":"541.059","CLASSIFICATION_TYPE":"U","DECAY_DATE":null,"EPOCH":"2022-10-07T21:21:08.254368","GP_ID":"214437678","MEAN_MOTION_DOT":"0.00000699","PERIAPSIS":"538.459","NORAD_CAT_ID":"51722","INCLINATION":"53.2176","SITE":"AFETR","ELEMENT_SET_NO":"999","BSTAR":"0.00006203000000","CENTER_NAME":"EARTH","PERIOD":"95.438","EPHEMERIS_TYPE":"0","OBJECT_ID":"2022-016J","SEMIMAJOR_AXIS":"6917.894"},{"SEMIMAJOR_AXIS":"6717.763","OBJECT_ID":"2022-016K","EPHEMERIS_TYPE":"0","PERIOD":"91.326","CENTER_NAME":"EARTH","SITE":"AFETR","ELEMENT_SET_NO":"999","BSTAR":"0.00009880300000","PERIAPSIS":"333.774","NORAD_CAT_ID":"51723","INCLINATION":"53.2168","MEAN_MOTION_DOT":"0.00015593","GP_ID":"214436426","EPOCH":"2022-10-07T21:38:58.854912","CLASSIFICATION_TYPE":"U","DECAY_DATE":null,"MEAN_MOTION_DDOT":"0.0000000000000","APOAPSIS":"345.482","OBJECT_TYPE":"PAYLOAD","TLE_LINE2":"2 51723  53.2168  84.8798 0008714 277.8697  82.1336 15.76760423 36165","MEAN_ANOMALY":"82.1336","TLE_LINE1":"1 51723U 22016K   22280.90207008  .00015593  00000-0  98803-4 0  9994","LAUNCH_DATE":"2022-02-21","REF_FRAME":"TEME","MEAN_MOTION":"15.76760423","RCS_SIZE":"LARGE","ECCENTRICITY":"0.00087140","TIME_SYSTEM":"UTC","RA_OF_ASC_NODE":"84.8798","REV_AT_EPOCH":"3616","FILE":"3595773","ARG_OF_PERICENTER":"277.8697","COUNTRY_CODE":"US","OBJECT_NAME":"STARLINK-3531","MEAN_ELEMENT_THEORY":"SGP4"}];
